NORAD_CAT_ID,OBJECT_NAME,OBJECT_TYPE,EPOCH,MEAN_MOTION,ECCENTRICITY,INCLINATION,RA_OF_ASC_NODE,ARG_OF_PERICENTER,MEAN_ANOMALY,BSTAR,MEAN_MOTION_DOT,MEAN_MOTION_DDOT,TLE_LINE0,TLE_LINE1,TLE_LINE2,SEMIMAJOR_AXIS,PERIOD,APOGEE,PERIGEE,DECAYED
52296.0,STARLINK-3766,PAYLOAD,2023-10-10 17:48:26,15.08843829,0.0001442,53.2162,93.8503,85.0081,275.1075,0.00012026,1.627e-05,0.0,0 STARLINK-3766,1 52296U 22041AM  23283.74197071  .00001627  00000-0  12026-3 0  9997,2 52296  53.2162  93.8503 0001442  85.0081 275.1075 15.08843829 82731,6917.869,95.437,540.731,538.736,0.0
52296.0,STARLINK-3766,PAYLOAD,2023-10-11 11:17:41,15.0883663,0.0001514,53.2171,90.5801,87.5225,272.5941,5.7504e-05,6.27e-06,0.0,0 STARLINK-3766,1 52296U 22041AM  23284.47061542  .00000627  00000-0  57504-4 0  9991,2 52296  53.2171  90.5801 0001514  87.5225 272.5941 15.08836630 82840,6917.891,95.438,540.803,538.708,0.0
52296.0,STARLINK-3766,PAYLOAD,2023-10-12 14:19:13,15.0884547,0.0001549,53.2181,85.524,93.4595,266.6574,0.00010905,1.448e-05,0.0,0 STARLINK-3766,1 52296U 22041AM  23285.59668877  .00001448  00000-0  10905-3 0  9994,2 52296  53.2181  85.5240 0001549  93.4595 266.6574 15.08845470 81797,6917.864,95.437,540.8,538.657,0.0
52296.0,STARLINK-3766,PAYLOAD,2023-10-12 17:29:59,15.08850427,0.0001414,53.218,84.9289,90.1335,269.9819,0.00011528,1.548e-05,0.0,0 STARLINK-3766,1 52296U 22041AM  23285.72916537  .00001548  00000-0  11528-3 0  9991,2 52296  53.2180  84.9289 0001414  90.1335 269.9819 15.08850427 83034,6917.849,95.437,540.692,538.735,0.0
52296.0,STARLINK-3766,PAYLOAD,2023-10-13 10:59:15,15.08836421,0.0001382,53.218,81.6585,88.3507,271.7644,0.00010794,1.43e-05,0.0,0 STARLINK-3766,1 52296U 22041AM  23286.45781556  .00001430  00000-0  10794-3 0  9997,2 52296  53.2180  81.6585 0001382  88.3507 271.7644 15.08836421 83148,6917.891,95.438,540.712,538.8,0.0
52296.0,STARLINK-3766,PAYLOAD,2023-10-13 14:10:01,15.08837156,0.000139,53.2184,81.0637,97.5687,262.5463,0.00011212,1.497e-05,0.0,0 STARLINK-3766,1 52296U 22041AM  23286.59029605  .00001497  00000-0  11212-3 0  9991,2 52296  53.2184  81.0637 0001390  97.5687 262.5463 15.08837156 81943,6917.889,95.438,540.716,538.792,0.0
52296.0,STARLINK-3766,PAYLOAD,2023-10-13 17:20:47,15.08844475,0.0001303,53.2167,80.4686,94.1348,265.9793,0.00018378,2.639e-05,0.0,0 STARLINK-3766,1 52296U 22041AM  23286.72277253  .00002639  00000-0  18378-3 0  9999,2 52296  53.2167  80.4686 0001303  94.1348 265.9793 15.08844475 81969,6917.867,95.437,540.633,538.83,0.0
52296.0,STARLINK-3766,PAYLOAD,2023-10-14 14:00:48,15.08842166,0.000132,53.2168,76.603,91.4655,268.6488,8.1812e-06,-1.58e-06,0.0,0 STARLINK-3766,1 52296U 22041AM  23287.58389199 -.00000158  00000-0  81812-5 0  9997,2 52296  53.2168  76.6030 0001320  91.4655 268.6488 15.08842166 82091,6917.874,95.437,540.652,538.826,0.0
52296.0,STARLINK-3766,PAYLOAD,2023-10-14 15:36:11,15.0884359,0.0001301,53.2166,76.3057,91.5063,268.6078,3.6226e-05,2.89e-06,0.0,0 STARLINK-3766,1 52296U 22041AM  23287.65013124  .00000289  00000-0  36226-4 0  9999,2 52296  53.2166  76.3057 0001301  91.5063 268.6078 15.08843590 82107,6917.869,95.437,540.634,538.834,0.0
52296.0,STARLINK-3766,PAYLOAD,2023-10-15 09:05:26,15.08835259,0.0001353,53.217,73.0354,78.5931,281.5213,-3.0172e-05,-7.68e-06,0.0,0 STARLINK-3766,1 52296U 22041AM  23288.37877771 -.00000768  00000-0 -30172-4 0  9993,2 52296  53.2170  73.0354 0001353  78.5931 281.5213 15.08835259 83437,6917.895,95.438,540.696,538.824,0.0
52296.0,STARLINK-3766,PAYLOAD,2023-10-15 13:51:35,15.08832898,0.0001358,53.2177,72.1426,81.7056,278.409,-3.4678e-05,-8.4e-06,0.0,0 STARLINK-3766,1 52296U 22041AM  23288.57749969 -.00000840  00000-0 -34678-4 0  9998,2 52296  53.2177  72.1426 0001358  81.7056 278.4090 15.08832898 82245,6917.902,95.438,540.707,538.828,0.0
52296.0,STARLINK-3766,PAYLOAD,2023-10-15 17:02:22,15.08836854,0.000134,53.2181,71.5476,97.1925,262.9219,4.853e-05,4.84e-06,0.0,0 STARLINK-3766,1 52296U 22041AM  23288.70998052  .00000484  00000-0  48530-4 0  9996,2 52296  53.2181  71.5476 0001340  97.1925 262.9219 15.08836854 82264,6917.89,95.438,540.682,538.828,0.0
52296.0,STARLINK-3766,PAYLOAD,2023-10-16 13:42:22,15.08859215,0.0001376,53.2182,67.6821,77.3291,282.7855,-0.00020924,-3.618e-05,0.0,0 STARLINK-3766,1 52296U 22041AM  23289.57109490 -.00003618  00000-0 -20924-3 0  9992,2 52296  53.2182  67.6821 0001376  77.3291 282.7855 15.08859215 82396,6917.822,95.436,540.639,538.735,0.0
52296.0,STARLINK-3766,PAYLOAD,2023-10-16 18:28:32,15.08845066,0.0001437,53.2184,66.7888,83.5912,276.5243,0.0001047,1.379e-05,0.0,0 STARLINK-3766,1 52296U 22041AM  23289.76981667  .00001379  00000-0  10470-3 0  9992,2 52296  53.2184  66.7888 0001437  83.5912 276.5243 15.08845066 82423,6917.865,95.437,540.724,538.736,0.0
52296.0,STARLINK-3766,PAYLOAD,2023-10-17 08:47:01,15.08834583,0.0001557,53.2186,64.1168,67.7204,292.3953,0.00015005,2.101e-05,0.0,0 STARLINK-3766,1 52296U 22041AM  23290.36598457  .00002101  00000-0  15005-3 0  9994,2 52296  53.2186  64.1168 0001557  67.7204 292.3953 15.08834583 83730,6917.897,95.438,540.839,538.685,0.0
52296.0,STARLINK-3766,PAYLOAD,2023-10-18 02:16:15,15.08841858,0.0001463,53.219,60.8443,81.6197,278.4961,9.5573e-05,1.233e-05,0.0,0 STARLINK-3766,1 52296U 22041AM  23291.09462209  .00001233  00000-0  95573-4 0  9994,2 52296  53.2190  60.8443 0001463  81.6197 278.4961 15.08841858 82620,6917.875,95.437,540.752,538.728,0.0
52296.0,STARLINK-3766,PAYLOAD,2023-10-18 11:48:34,15.08831975,0.0001548,53.2174,59.0601,100.9555,259.1611,0.00013393,1.844e-05,0.0,0 STARLINK-3766,1 52296U 22041AM  23291.49206633  .00001844  00000-0  13393-3 0  9992,2 52296  53.2174  59.0601 0001548 100.9555 259.1611 15.08831975 83904,6917.905,95.438,540.841,538.699,0.0
52296.0,STARLINK-3766,PAYLOAD,2023-10-18 14:59:20,15.08844473,0.0001348,53.2178,58.4641,90.9535,269.1612,-2.5398e-06,-3.28e-06,0.0,0 STARLINK-3766,1 52296U 22041AM  23291.62454297 -.00000328  00000-0 -25398-5 0  9996,2 52296  53.2178  58.4641 0001348  90.9535 269.1612 15.08844473 82705,6917.867,95.437,540.664,538.799,0.0
52296.0,STARLINK-3766,PAYLOAD,2023-10-19 02:07:01,15.08849389,0.0001399,53.2178,56.3812,109.3207,250.7937,6.7566e-05,7.88e-06,0.0,0 STARLINK-3766,1 52296U 22041AM  23292.08821582  .00000788  00000-0  67566-4 0  9992,2 52296  53.2178  56.3812 0001399 109.3207 250.7937 15.08849389 83998,6917.852,95.437,540.684,538.749,0.0
52296.0,STARLINK-3766,PAYLOAD,2023-10-19 11:39:20,15.0884929,0.0001568,53.2172,54.5991,82.0337,278.0833,0.00017815,2.549e-05,0.0,0 STARLINK-3766,1 52296U 22041AM  23292.48565473  .00002549  00000-0  17815-3 0  9998,2 52296  53.2172  54.5991 0001568  82.0337 278.0833 15.08849290 82830,6917.852,95.437,540.802,538.632,0.0
52296.0,STARLINK-3766,PAYLOAD,2023-10-20 11:30:08,15.08831771,0.0001595,53.2184,50.1359,105.0675,255.0494,1.0071e-06,-2.72e-06,0.0,0 STARLINK-3766,1 52296U 22041AM  23293.47926772 -.00000272  00000-0  10071-5 0  9992,2 52296  53.2184  50.1359 0001595 105.0675 255.0494 15.08831771 84200,6917.906,95.438,540.874,538.667,0.0
52296.0,STARLINK-3766,PAYLOAD,2023-10-21 11:20:55,15.0883914,0.0001283,53.2213,45.682,80.6237,279.49,8.1982e-05,1.017e-05,0.0,0 STARLINK-3766,1 52296U 22041AM  23294.47286310  .00001017  00000-0  81982-4 0  9995,2 52296  53.2213  45.6820 0001283  80.6237 279.4900 15.08839140 84357,6917.883,95.438,540.636,538.86,0.0
52296.0,STARLINK-3766,PAYLOAD,2023-10-21 14:31:40,15.08858923,0.0001397,53.2176,45.0802,93.0899,267.0253,0.00011525,1.548e-05,0.0,0 STARLINK-3766,1 52296U 22041AM  23294.60532918  .00001548  00000-0  11525-3 0  9992,2 52296  53.2176  45.0802 0001397  93.0899 267.0253 15.08858923 83158,6917.823,95.436,540.654,538.721,0.0
52296.0,STARLINK-3766,PAYLOAD,2023-10-21 17:42:26,15.08859779,0.0001405,53.2193,44.4874,94.2439,265.8713,0.00010411,1.37e-05,0.0,0 STARLINK-3766,1 52296U 22041AM  23294.73780784  .00001370  00000-0  10411-3 0  9998,2 52296  53.2193  44.4874 0001405  94.2439 265.8713 15.08859779 84396,6917.82,95.436,540.657,538.713,0.0
52296.0,STARLINK-3766,PAYLOAD,2023-10-22 00:04:00,15.08831135,0.0001393,53.2202,43.2987,91.9802,268.135,0.00013921,1.928e-05,0.0,0 STARLINK-3766,1 52296U 22041AM  23295.00278369  .00001928  00000-0  13921-3 0  9998,2 52296  53.2202  43.2987 0001393  91.9802 268.1350 15.08831135 84437,6917.907,95.438,540.736,538.809,0.0
52296.0,STARLINK-3766,PAYLOAD,2023-10-22 11:11:43,15.08817498,0.000139,53.2194,41.2158,85.1454,274.9697,9.1193e-06,-1.43e-06,0.0,0 STARLINK-3766,1 52296U 22041AM  23295.46648131 -.00000143  00000-0  91193-5 0  9994,2 52296  53.2194  41.2158 0001390  85.1454 274.9697 15.08817498 84503,6917.949,95.439,540.776,538.853,0.0
52296.0,STARLINK-3766,PAYLOAD,2023-10-22 14:22:29,15.08829211,0.0001311,53.219,40.621,81.864,278.2501,0.00010902,1.447e-05,0.0,0 STARLINK-3766,1 52296U 22041AM  23295.59895263  .00001447  00000-0  10902-3 0  9992,2 52296  53.2190  40.6210 0001311  81.8640 278.2501 15.08829211 83308,6917.913,95.438,540.685,538.871,0.0
52296.0,STARLINK-3766,PAYLOAD,2023-10-22 17:33:16,15.08827641,0.0001328,53.2192,40.0276,81.1543,278.96,9.3338e-05,1.197e-05,0.0,0 STARLINK-3766,1 52296U 22041AM  23295.73143532  .00001197  00000-0  93338-4 0  9990,2 52296  53.2192  40.0276 0001328  81.1543 278.9600 15.08827641 84548,6917.918,95.438,540.702,538.864,0.0
52296.0,STARLINK-3766,PAYLOAD,2023-10-23 11:02:30,15.08842043,0.000122,53.2178,36.7562,76.6495,283.4633,1.511e-05,-4.7e-07,0.0,0 STARLINK-3766,1 52296U 22041AM  23296.46007210 -.00000047  00000-0  15110-4 0  9999,2 52296  53.2178  36.7562 0001220  76.6495 283.4633 15.08842043 84650,6917.874,95.437,540.583,538.895,0.0
52296.0,STARLINK-3766,PAYLOAD,2023-10-24 12:28:40,15.08841225,0.0001302,53.2176,31.9991,68.913,291.2001,0.00018185,2.608e-05,0.0,0 STARLINK-3766,1 52296U 22041AM  23297.51991116  .00002608  00000-0  18185-3 0  9991,2 52296  53.2176  31.9991 0001302  68.9130 291.2001 15.08841225 84817,6917.877,95.437,540.642,538.841,0.0
